{
  "type": "FeatureCollection",
  "features": [
    {
      "type": "Feature",
      "properties": {
        "norad_id": 40362,
        "name": "YAOGAN-26",
        "group": "resource",
        "lat": -45.56048670010901,
        "lon": 161.74967514132814,
        "alt_km": 458.78200152224053,
        "timestamp": "2025-12-14T09:36:22.691715+00:00",
        "meta_object_name": "YAOGAN-26",
        "meta_object_id": "2014-088A",
        "meta_epoch": "2025-12-13T15:27:59.258304",
        "meta_mean_motion": 15.39335506,
        "meta_eccentricity": 0.00061552,
        "meta_inclination": 97.0647,
        "meta_ra_of_asc_node": 348.2862,
        "meta_arg_of_pericenter": 28.5852,
        "meta_mean_anomaly": 331.5731,
        "meta_ephemeris_type": 0,
        "meta_classification_type": "U",
        "meta_norad_cat_id": 40362,
        "meta_element_set_no": 999,
        "meta_rev_at_epoch": 60908,
        "meta_bstar": 0.00038134514,
        "meta_mean_motion_dot": 0.00014828,
        "meta_mean_motion_ddot": 0,
        "tle_line1": "1 40362U 14088A   25347.64443586  .00014828  00000+0  38135-3 0  9992",
        "tle_line2": "2 40362  97.0647 348.2862 0006155  28.5852 331.5731 15.39335506609086"
      },
      "geometry": {
        "type": "Point",
        "coordinates": [
          161.74967514132814,
          -45.56048670010901
        ]
      }
    },
    {
      "type": "Feature",
      "properties": {
        "norad_id": 40376,
        "name": "SMAP",
        "group": "resource",
        "lat": 20.981604329336122,
        "lon": -10.042029382595143,
        "alt_km": 681.9659235796853,
        "timestamp": "2025-12-14T09:36:22.691726+00:00",
        "meta_object_name": "SMAP",
        "meta_object_id": "2015-003A",
        "meta_epoch": "2025-12-13T15:27:29.186784",
        "meta_mean_motion": 14.63346503,
        "meta_eccentricity": 0.00012034,
        "meta_inclination": 98.1291,
        "meta_ra_of_asc_node": 352.3549,
        "meta_arg_of_pericenter": 90.6358,
        "meta_mean_anomaly": 269.4982,
        "meta_ephemeris_type": 0,
        "meta_classification_type": "U",
        "meta_norad_cat_id": 40376,
        "meta_element_set_no": 999,
        "meta_rev_at_epoch": 58048,
        "meta_bstar": 0.00017098049,
        "meta_mean_motion_dot": 8.36e-06,
        "meta_mean_motion_ddot": 0,
        "tle_line1": "1 40376U 15003A   25347.64408781  .00000836  00000+0  17098-3 0  9992",
        "tle_line2": "2 40376  98.1291 352.3549 0001203  90.6358 269.4982 14.63346503580480"
      },
      "geometry": {
        "type": "Point",
        "coordinates": [
          -10.042029382595143,
          20.981604329336122
        ]
      }
    },
    {
      "type": "Feature",
      "properties": {
        "norad_id": 40536,
        "name": "KOMPSAT-3A",
        "group": "resource",
        "lat": -14.33846390927568,
        "lon": 140.86247255061673,
        "alt_km": 437.9793372416143,
        "timestamp": "2025-12-14T09:36:22.691735+00:00",
        "meta_object_name": "KOMPSAT-3A",
        "meta_object_id": "2015-014A",
        "meta_epoch": "2025-12-13T15:39:29.163168",
        "meta_mean_motion": 15.43987755,
        "meta_eccentricity": 0.00050031,
        "meta_inclination": 97.6787,
        "meta_ra_of_asc_node": 322.0496,
        "meta_arg_of_pericenter": 124.883,
        "meta_mean_anomaly": 235.2889,
        "meta_ephemeris_type": 0,
        "meta_classification_type": "U",
        "meta_norad_cat_id": 40536,
        "meta_element_set_no": 999,
        "meta_rev_at_epoch": 59309,
        "meta_bstar": 0.00047513071,
        "meta_mean_motion_dot": 0.00021594,
        "meta_mean_motion_ddot": 0,
        "tle_line1": "1 40536U 15014A   25347.65242087  .00021594  00000+0  47513-3 0  9997",
        "tle_line2": "2 40536  97.6787 322.0496 0005003 124.8830 235.2889 15.43987755593091"
      },
      "geometry": {
        "type": "Point",
        "coordinates": [
          140.86247255061673,
          -14.33846390927568
        ]
      }
    },
    {
      "type": "Feature",
      "properties": {
        "norad_id": 40697,
        "name": "SENTINEL-2A",
        "group": "resource",
        "lat": 54.53800848549352,
        "lon": 48.68787993158399,
        "alt_km": 783.14428846991,
        "timestamp": "2025-12-14T09:36:22.691746+00:00",
        "meta_object_name": "SENTINEL-2A",
        "meta_object_id": "2015-028A",
        "meta_epoch": "2025-12-13T16:33:53.272224",
        "meta_mean_motion": 14.30814225,
        "meta_eccentricity": 0.00010822,
        "meta_inclination": 98.5687,
        "meta_ra_of_asc_node": 60.2086,
        "meta_arg_of_pericenter": 87.8943,
        "meta_mean_anomaly": 272.2364,
        "meta_ephemeris_type": 0,
        "meta_classification_type": "U",
        "meta_norad_cat_id": 40697,
        "meta_element_set_no": 999,
        "meta_rev_at_epoch": 54720,
        "meta_bstar": 0.0001422295,
        "meta_mean_motion_dot": 3.29e-06,
        "meta_mean_motion_ddot": 0,
        "tle_line1": "1 40697U 15028A   25347.69019991  .00000329  00000+0  14223-3 0  9995",
        "tle_line2": "2 40697  98.5687  60.2086 0001082  87.8943 272.2364 14.30814225547207"
      },
      "geometry": {
        "type": "Point",
        "coordinates": [
          48.68787993158399,
          54.53800848549352
        ]
      }
    },
    {
      "type": "Feature",
      "properties": {
        "norad_id": 40701,
        "name": "GAOFEN-8",
        "group": "resource",
        "lat": 25.04859024480942,
        "lon": 162.99994135629728,
        "alt_km": 451.75282648816756,
        "timestamp": "2025-12-14T09:36:22.691756+00:00",
        "meta_object_name": "GAOFEN-8",
        "meta_object_id": "2015-030A",
        "meta_epoch": "2025-12-13T16:19:38.349408",
        "meta_mean_motion": 15.38600851,
        "meta_eccentricity": 0.00116728,
        "meta_inclination": 97.6913,
        "meta_ra_of_asc_node": 165.8662,
        "meta_arg_of_pericenter": 134.6295,
        "meta_mean_anomaly": 225.5903,
        "meta_ephemeris_type": 0,
        "meta_classification_type": "U",
        "meta_norad_cat_id": 40701,
        "meta_element_set_no": 999,
        "meta_rev_at_epoch": 58285,
        "meta_bstar": 0.00084606521,
        "meta_mean_motion_dot": 0.00032331,
        "meta_mean_motion_ddot": 0,
        "tle_line1": "1 40701U 15030A   25347.68030497  .00032331  00000+0  84607-3 0  9998",
        "tle_line2": "2 40701  97.6913 165.8662 0011672 134.6295 225.5903 15.38600851582851"
      },
      "geometry": {
        "type": "Point",
        "coordinates": [
          162.99994135629728,
          25.04859024480942
        ]
      }
    },
    {
      "type": "Feature",
      "properties": {
        "norad_id": 40718,
        "name": "CARBONITE 1 (CBNT-1)",
        "group": "resource",
        "lat": -16.335802612990822,
        "lon": 171.62563322383136,
        "alt_km": 635.4430528890998,
        "timestamp": "2025-12-14T09:36:22.691765+00:00",
        "meta_object_name": "CARBONITE 1 (CBNT-1)",
        "meta_object_id": "2015-032D",
        "meta_epoch": "2025-12-13T15:51:54.102240",
        "meta_mean_motion": 14.82752732,
        "meta_eccentricity": 0.00145077,
        "meta_inclination": 97.6403,
        "meta_ra_of_asc_node": 168.6644,
        "meta_arg_of_pericenter": 178.2814,
        "meta_mean_anomaly": 181.8452,
        "meta_ephemeris_type": 0,
        "meta_classification_type": "U",
        "meta_norad_cat_id": 40718,
        "meta_element_set_no": 999,
        "meta_rev_at_epoch": 56184,
        "meta_bstar": 0.00049545092,
        "meta_mean_motion_dot": 3.96e-05,
        "meta_mean_motion_ddot": 0,
        "tle_line1": "1 40718U 15032D   25347.66104285  .00003960  00000+0  49545-3 0  9991",
        "tle_line2": "2 40718  97.6403 168.6644 0014507 178.2814 181.8452 14.82752732561848"
      },
      "geometry": {
        "type": "Point",
        "coordinates": [
          171.62563322383136,
          -16.335802612990822
        ]
      }
    },
    {
      "type": "Feature",
      "properties": {
        "norad_id": 40878,
        "name": "YAOGAN-27",
        "group": "resource",
        "lat": 51.7862778157431,
        "lon": 171.0312731759241,
        "alt_km": 1200.1542850024116,
        "timestamp": "2025-12-14T09:36:22.691775+00:00",
        "meta_object_name": "YAOGAN-27",
        "meta_object_id": "2015-040A",
        "meta_epoch": "2025-12-13T16:32:31.338240",
        "meta_mean_motion": 13.16059608,
        "meta_eccentricity": 0.0007635,
        "meta_inclination": 100.1016,
        "meta_ra_of_asc_node": 337.2664,
        "meta_arg_of_pericenter": 284.6861,
        "meta_mean_anomaly": 75.3406,
        "meta_ephemeris_type": 0,
        "meta_classification_type": "U",
        "meta_norad_cat_id": 40878,
        "meta_element_set_no": 999,
        "meta_rev_at_epoch": 49326,
        "meta_bstar": -0.00080197742,
        "meta_mean_motion_dot": -3.47e-06,
        "meta_mean_motion_ddot": 0,
        "tle_line1": "1 40878U 15040A   25347.68925160 -.00000347  00000+0 -80198-3 0  9999",
        "tle_line2": "2 40878 100.1016 337.2664 0007635 284.6861  75.3406 13.16059608493263"
      },
      "geometry": {
        "type": "Point",
        "coordinates": [
          171.0312731759241,
          51.7862778157431
        ]
      }
    }
  ]
}